[{"OBJECT_NAME":"STARLINK-4791","OBJECT_ID":"2022-119BC","EPOCH":"2026-03-09T20:27:49.476672","MEAN_MOTION":15.08835935,"ECCENTRICITY":0.00011108,"INCLINATION":53.2174,"RA_OF_ASC_NODE":298.1232,"ARG_OF_PERICENTER":93.2066,"MEAN_ANOMALY":266.9053,"EPHEMERIS_TYPE":0,"CLASSIFICATION_TYPE":"U","NORAD_CAT_ID":53936,"ELEMENT_SET_NO":999,"REV_AT_EPOCH":19207,"BSTAR":-7.423478e-6,"MEAN_MOTION_DOT":-4.06e-6,"MEAN_MOTION_DDOT":0},{"OBJECT_NAME":"USA 121","OBJECT_ID":"1996-029C","EPOCH":"2026-03-09T12:20:41.273376","MEAN_MOTION":13.45884179,"ECCENTRICITY":0.08466392,"INCLINATION":63.3189,"RA_OF_ASC_NODE":92.3686,"ARG_OF_PERICENTER":47.9314,"MEAN_ANOMALY":319.0644,"EPHEMERIS_TYPE":0,"CLASSIFICATION_TYPE":"U","NORAD_CAT_ID":23908,"ELEMENT_SET_NO":999,"REV_AT_EPOCH":8995,"BSTAR":0.00032043182,"MEAN_MOTION_DOT":1.829e-5,"MEAN_MOTION_DDOT":0}]
